[{"OBJECT_NAME":"FORMOSAT 7-1","OBJECT_ID":"2019-036L","EPOCH":"2026-03-09T01:58:31.546848","MEAN_MOTION":14.96019979,"ECCENTRICITY":0.00010479,"INCLINATION":23.9993,"RA_OF_ASC_NODE":347.0403,"ARG_OF_PERICENTER":84.2943,"MEAN_ANOMALY":275.7677,"EPHEMERIS_TYPE":0,"CLASSIFICATION_TYPE":"U","NORAD_CAT_ID":44349,"ELEMENT_SET_NO":999,"REV_AT_EPOCH":36964,"BSTAR":0.00036541512,"MEAN_MOTION_DOT":4.503e-5,"MEAN_MOTION_DDOT":0},{"OBJECT_NAME":"CZ-6A DEB","OBJECT_ID":"2022-151YE","EPOCH":"2026-03-09T18:13:38.556192","MEAN_MOTION":14.86736267,"ECCENTRICITY":0.00514965,"INCLINATION":98.6419,"RA_OF_ASC_NODE":137.7987,"ARG_OF_PERICENTER":211.6126,"MEAN_ANOMALY":148.1991,"EPHEMERIS_TYPE":0,"CLASSIFICATION_TYPE":"U","NORAD_CAT_ID":55532,"ELEMENT_SET_NO":999,"REV_AT_EPOCH":17090,"BSTAR":0.0037982535,"MEAN_MOTION_DOT":0.00034713,"MEAN_MOTION_DDOT":0}]
